QIANFAN-49              
1 62250U 24232P   25222.18907654  .00000061  00000+0  75783-4 0  9991
2 62250  88.9930  53.8204 0013782 187.3038 172.7915 13.50956701 51024
QIANFAN-50              
1 62251U 24232Q   25221.54735831  .00000046  00000+0  52166-4 0  9990
2 62251  88.9935  53.8870 0015308 191.4511 168.6294 13.50963318 50965
QIANFAN-51              
1 62252U 24232R   25221.60494918  .00000051  00000+0  60758-4 0  9998
2 62252  88.9929  53.8828 0012708 193.7239 166.3569 13.50958854 50964
QIANFAN-52              
1 62253U 24232S   25221.55966581  .00000068  00000+0  86198-4 0  9997
2 62253  88.9925  53.7657 0014950 187.0062 173.0883 13.50960084 51043
QIANFAN-53              
1 62254U 24232T   25222.20573932  .00000044  00000+0  49737-4 0  9997
2 62254  88.9933  53.7952 0013855 185.6192 174.4806 13.50964431 51097
QIANFAN-54              
1 62255U 24232U   25222.17273708  .00000034  00000+0  34859-4 0  9990
2 62255  88.9924  53.4877 0001177 167.6314 192.4867 13.50952531 82595
QIANFAN-55              
1 62785U 25016A   25222.19870391  .00000124  00000+0  17297-3 0  9998
2 62785  88.9838 116.0606 0017740 355.4257   4.6729 13.50965402 30370
QIANFAN-56              
1 62786U 25016B   25221.54862461  .00000144  00000+0  20395-3 0  9991
2 62786  88.9812 115.9978 0016558   0.1661 359.9493 13.50956960 30331
